[{"OBJECT_NAME":"ONEWEB-0012","OBJECT_ID":"2019-010A","EPOCH":"2025-08-24T13:27:54.063360","MEAN_MOTION":13.1659297,"ECCENTRICITY":0.00023924,"INCLINATION":87.9008,"RA_OF_ASC_NODE":287.9273,"ARG_OF_PERICENTER":91.037,"MEAN_ANOMALY":269.1036,"EPHEMERIS_TYPE":0,"CLASSIFICATION_TYPE":"U","NORAD_CAT_ID":44057,"ELEMENT_SET_NO":999,"REV_AT_EPOCH":31253,"BSTAR":-0.00014387629,"MEAN_MOTION_DOT":-4.2e-7,"MEAN_MOTION_DDOT":0},{"OBJECT_NAME":"ONEWEB-0010","OBJECT_ID":"2019-010B","EPOCH":"2025-08-24T14:04:23.352960","MEAN_MOTION":13.16601624,"ECCENTRICITY":0.00017911,"INCLINATION":87.9008,"RA_OF_ASC_NODE":287.9054,"ARG_OF_PERICENTER":83.9538,"MEAN_ANOMALY":276.1797,"EPHEMERIS_TYPE":0,"CLASSIFICATION_TYPE":"U","NORAD_CAT_ID":44058,"ELEMENT_SET_NO":999,"REV_AT_EPOCH":31258,"BSTAR":-0.0039316278,"MEAN_MOTION_DOT":-1.49e-5,"MEAN_MOTION_DDOT":0},{"OBJECT_NAME":"ONEWEB-0008","OBJECT_ID":"2019-010C","EPOCH":"2025-08-24T12:51:25.312896","MEAN_MOTION":13.16594852,"ECCENTRICITY":0.00020371,"INCLINATION":87.9008,"RA_OF_ASC_NODE":287.9133,"ARG_OF_PERICENTER":100.9832,"MEAN_ANOMALY":259.1528,"EPHEMERIS_TYPE":0,"CLASSIFICATION_TYPE":"U","NORAD_CAT_ID":44059,"ELEMENT_SET_NO":999,"REV_AT_EPOCH":31269,"BSTAR":5.9549665e-5,"MEAN_MOTION_DOT":3.6e-7,"MEAN_MOTION_DDOT":0},{"OBJECT_NAME":"ONEWEB-0007","OBJECT_ID":"2019-010D","EPOCH":"2025-08-24T06:13:07.735584","MEAN_MOTION":13.15547523,"ECCENTRICITY":0.00019107,"INCLINATION":87.907,"RA_OF_ASC_NODE":318.4645,"ARG_OF_PERICENTER":89.1027,"MEAN_ANOMALY":271.0322,"EPHEMERIS_TYPE":0,"CLASSIFICATION_TYPE":"U","NORAD_CAT_ID":44060,"ELEMENT_SET_NO":999,"REV_AT_EPOCH":31233,"BSTAR":0.00012211156,"MEAN_MOTION_DOT":5.9e-7,"MEAN_MOTION_DDOT":0},{"OBJECT_NAME":"ONEWEB-0006","OBJECT_ID":"2019-010E","EPOCH":"2025-08-24T06:18:48.762432","MEAN_MOTION":13.15550115,"ECCENTRICITY":0.0001767,"INCLINATION":87.9071,"RA_OF_ASC_NODE":318.4048,"ARG_OF_PERICENTER":91.5065,"MEAN_ANOMALY":268.6268,"EPHEMERIS_TYPE":0,"CLASSIFICATION_TYPE":"U","NORAD_CAT_ID":44061,"ELEMENT_SET_NO":999,"REV_AT_EPOCH":31238,"BSTAR":-0.00014635388,"MEAN_MOTION_DOT":-4.2e-7,"MEAN_MOTION_DDOT":0},{"OBJECT_NAME":"ONEWEB-0011","OBJECT_ID":"2019-010F","EPOCH":"2025-08-24T14:40:50.014272","MEAN_MOTION":13.15548743,"ECCENTRICITY":0.00017327,"INCLINATION":87.9075,"RA_OF_ASC_NODE":318.3469,"ARG_OF_PERICENTER":103.3064,"MEAN_ANOMALY":256.826,"EPHEMERIS_TYPE":0,"CLASSIFICATION_TYPE":"U","NORAD_CAT_ID":44062,"ELEMENT_SET_NO":999,"REV_AT_EPOCH":31242,"BSTAR":0.00034197555,"MEAN_MOTION_DOT":1.42e-6,"MEAN_MOTION_DDOT":0},{"OBJECT_NAME":"ONEWEB-0013","OBJECT_ID":"2020-008A","EPOCH":"2025-08-24T14:47:53.818368","MEAN_MOTION":13.09433474,"ECCENTRICITY":0.00027301,"INCLINATION":87.8522,"RA_OF_ASC_NODE":112.7209,"ARG_OF_PERICENTER":76.97,"MEAN_ANOMALY":283.1732,"EPHEMERIS_TYPE":0,"CLASSIFICATION_TYPE":"U","NORAD_CAT_ID":45131,"ELEMENT_SET_NO":999,"REV_AT_EPOCH":26725,"BSTAR":-0.0015904119,"MEAN_MOTION_DOT":-5.35e-6,"MEAN_MOTION_DDOT":0},{"OBJECT_NAME":"ONEWEB-0017","OBJECT_ID":"2020-008B","EPOCH":"2025-08-24T13:55:06.523968","MEAN_MOTION":13.10379066,"ECCENTRICITY":0.00014752,"INCLINATION":87.8765,"RA_OF_ASC_NODE":95.4336,"ARG_OF_PERICENTER":76.5296,"MEAN_ANOMALY":283.5995,"EPHEMERIS_TYPE":0,"CLASSIFICATION_TYPE":"U","NORAD_CAT_ID":45132,"ELEMENT_SET_NO":999,"REV_AT_EPOCH":26910,"BSTAR":3.7101872e-5,"MEAN_MOTION_DOT":2.6e-7,"MEAN_MOTION_DDOT":0},{"OBJECT_NAME":"ONEWEB-0020","OBJECT_ID":"2020-008C","EPOCH":"2025-08-24T13:12:01.436832","MEAN_MOTION":13.10372735,"ECCENTRICITY":0.00016429,"INCLINATION":87.8759,"RA_OF_ASC_NODE":95.4228,"ARG_OF_PERICENTER":88.7156,"MEAN_ANOMALY":271.416,"EPHEMERIS_TYPE":0,"CLASSIFICATION_TYPE":"U","NORAD_CAT_ID":45133,"ELEMENT_SET_NO":999,"REV_AT_EPOCH":26949,"BSTAR":-0.0011385025,"MEAN_MOTION_DOT":-3.85e-6,"MEAN_MOTION_DDOT":0},{"OBJECT_NAME":"ONEWEB-0021","OBJECT_ID":"2020-008D","EPOCH":"2025-08-24T13:33:31.667904","MEAN_MOTION":13.10372298,"ECCENTRICITY":0.00017125,"INCLINATION":87.8762,"RA_OF_ASC_NODE":95.454,"ARG_OF_PERICENTER":78.8886,"MEAN_ANOMALY":281.2433,"EPHEMERIS_TYPE":0,"CLASSIFICATION_TYPE":"U","NORAD_CAT_ID":45134,"ELEMENT_SET_NO":999,"REV_AT_EPOCH":26980,"BSTAR":-0.0016835725,"MEAN_MOTION_DOT":-5.75e-6,"MEAN_MOTION_DDOT":0},{"OBJECT_NAME":"ONEWEB-0023","OBJECT_ID":"2020-008F","EPOCH":"2025-08-24T13:49:05.558592","MEAN_MOTION":13.10376391,"ECCENTRICITY":0.00018842,"INCLINATION":87.8765,"RA_OF_ASC_NODE":95.4346,"ARG_OF_PERICENTER":88.4478,"MEAN_ANOMALY":271.6865,"EPHEMERIS_TYPE":0,"CLASSIFICATION_TYPE":"U","NORAD_CAT_ID":45136,"ELEMENT_SET_NO":999,"REV_AT_EPOCH":26923,"BSTAR":-0.00029406451,"MEAN_MOTION_DOT":-9.0e-7,"MEAN_MOTION_DDOT":0},{"OBJECT_NAME":"ONEWEB-0024","OBJECT_ID":"2020-008G","EPOCH":"2025-08-24T14:59:35.759616","MEAN_MOTION":13.10368801,"ECCENTRICITY":0.00016814,"INCLINATION":87.8766,"RA_OF_ASC_NODE":95.3741,"ARG_OF_PERICENTER":80.7477,"MEAN_ANOMALY":279.3841,"EPHEMERIS_TYPE":0,"CLASSIFICATION_TYPE":"U","NORAD_CAT_ID":45137,"ELEMENT_SET_NO":999,"REV_AT_EPOCH":26940,"BSTAR":-0.00074337923,"MEAN_MOTION_DOT":-2.47e-6,"MEAN_MOTION_DDOT":0},{"OBJECT_NAME":"ONEWEB-0025","OBJECT_ID":"2020-008H","EPOCH":"2025-08-24T13:34:45.056064","MEAN_MOTION":13.103744,"ECCENTRICITY":0.00023405,"INCLINATION":87.878,"RA_OF_ASC_NODE":95.3954,"ARG_OF_PERICENTER":79.1557,"MEAN_ANOMALY":280.9834,"EPHEMERIS_TYPE":0,"CLASSIFICATION_TYPE":"U","NORAD_CAT_ID":45138,"ELEMENT_SET_NO":999,"REV_AT_EPOCH":26972,"BSTAR":-0.0014342884,"MEAN_MOTION_DOT":-4.88e-6,"MEAN_MOTION_DDOT":0},{"OBJECT_NAME":"ONEWEB-0026","OBJECT_ID":"2020-008J","EPOCH":"2025-08-24T14:13:55.377984","MEAN_MOTION":13.11415313,"ECCENTRICITY":0.00015346,"INCLINATION":87.8779,"RA_OF_ASC_NODE":80.1681,"ARG_OF_PERICENTER":87.4687,"MEAN_ANOMALY":272.6617,"EPHEMERIS_TYPE":0,"CLASSIFICATION_TYPE":"U","NORAD_CAT_ID":45139,"ELEMENT_SET_NO":999,"REV_AT_EPOCH":27223,"BSTAR":-0.0014235691,"MEAN_MOTION_DOT":-4.92e-6,"MEAN_MOTION_DDOT":0},{"OBJECT_NAME":"ONEWEB-0028","OBJECT_ID":"2020-008K","EPOCH":"2025-08-24T13:11:41.804160","MEAN_MOTION":13.11417401,"ECCENTRICITY":0.0002376,"INCLINATION":87.8774,"RA_OF_ASC_NODE":80.1976,"ARG_OF_PERICENTER":81.3387,"MEAN_ANOMALY":278.801,"EPHEMERIS_TYPE":0,"CLASSIFICATION_TYPE":"U","NORAD_CAT_ID":45140,"ELEMENT_SET_NO":999,"REV_AT_EPOCH":26974,"BSTAR":0.0013243978,"MEAN_MOTION_DOT":4.82e-6,"MEAN_MOTION_DDOT":0},{"OBJECT_NAME":"ONEWEB-0032","OBJECT_ID":"2020-008L","EPOCH":"2025-08-24T13:57:26.562816","MEAN_MOTION":13.10373533,"ECCENTRICITY":0.00018696,"INCLINATION":87.8759,"RA_OF_ASC_NODE":95.4346,"ARG_OF_PERICENTER":80.7659,"MEAN_ANOMALY":279.368,"EPHEMERIS_TYPE":0,"CLASSIFICATION_TYPE":"U","NORAD_CAT_ID":45141,"ELEMENT_SET_NO":999,"REV_AT_EPOCH":26945,"BSTAR":-0.00094406671,"MEAN_MOTION_DOT":-3.17e-6,"MEAN_MOTION_DDOT":0}]
